GLOBALSTAR M001         
1 25162U 98008A   24363.08554561 -.00000107  00000+0 -81696-4 0  9996
2 25162  52.0028 111.2264 0001155 209.1461 322.4216 12.38204660222623
GLOBALSTAR M004         
1 25163U 98008B   24362.80176608 -.00000026  00000+0  43057-3 0  9995
2 25163  51.9976 217.0044 0001951 276.9818 182.3995 12.63383365240127
GLOBALSTAR M002         
1 25164U 98008C   24362.30850625 -.00000100  00000+0 -46014-3 0  9999
2 25164  52.0037 311.1613 0000892 178.3895 181.6928 11.61507010164090
GLOBALSTAR M003         
1 25165U 98008D   24362.53451936 -.00000006  00000+0  89341-3 0  9991
2 25165  51.9988 283.9199 0007866 311.2151 220.2602 12.12062273212402
GLOBALSTAR M014         
1 25306U 98023A   24362.77295883 -.00000034  00000+0  81091-3 0  9993
2 25306  51.9820 236.8270 0002034  56.7571  29.0605 11.65477209171172
GLOBALSTAR M006         
1 25307U 98023B   24363.06008657 -.00000056  00000+0  41036-3 0  9997
2 25307  51.9948 282.1780 0003409 143.3911 229.2103 11.58170737197119
GLOBALSTAR M015         
1 25308U 98023C   24363.08643234 -.00000058  00000+0  35394-3 0  9998
2 25308  51.9847  12.7400 0012814 131.9273 300.2300 11.48855382174780
GLOBALSTAR M008         
1 25309U 98023D   24363.12508802 -.00000091  00000+0  37713-4 0  9990
2 25309  51.9992 334.0046 0002381 169.2754 245.8546 12.36058801217002
